start=new Date('2023-05-08T00:00:00.000Z').valueOf();
sats=[{"OBJECT_TYPE":"PAYLOAD","REF_FRAME":"TEME","LAUNCH_DATE":"2021-09-14","APOAPSIS":"576.198","ECCENTRICITY":"0.00037390","COUNTRY_CODE":"US","INCLINATION":"70.0003","OBJECT_NAME":"STARLINK-3047","OBJECT_ID":"2021-082AW","PERIOD":"96.139","TLE_LINE2":"2 49174  70.0003   8.2748 0003739 265.2632  94.8099 14.97831853 92351","ARG_OF_PERICENTER":"265.2632","EPHEMERIS_TYPE":"0","SEMIMAJOR_AXIS":"6951.734","EPOCH":"2023-05-07T22:49:01.898688","SITE":"AFWTR","TIME_SYSTEM":"UTC","REV_AT_EPOCH":"9235","MEAN_MOTION_DOT":"0.00005199","RCS_SIZE":"LARGE","RA_OF_ASC_NODE":"8.2748","BSTAR":"0.00044886000000","DECAY_DATE":null,"MEAN_MOTION":"14.97831853","GP_ID":"231429252","ELEMENT_SET_NO":"999","CLASSIFICATION_TYPE":"U","PERIAPSIS":"571.000","NORAD_CAT_ID":"49174","CENTER_NAME":"EARTH","TLE_LINE1":"1 49174U 21082AW  23127.95071642  .00005199  00000-0  44886-3 0  9994","FILE":"3903413","MEAN_ANOMALY":"94.8099","MEAN_ELEMENT_THEORY":"SGP4","MEAN_MOTION_DDOT":"0.0000000000000"},{"TLE_LINE1":"1 49175U 21082AX  23127.93557116  .00000496  00000-0  49398-4 0  9997","CENTER_NAME":"EARTH","MEAN_ELEMENT_THEORY":"SGP4","MEAN_MOTION_DDOT":"0.0000000000000","FILE":"3903413","MEAN_ANOMALY":"105.1221","BSTAR":"0.00004939800000","DECAY_DATE":null,"RA_OF_ASC_NODE":"8.4864","NORAD_CAT_ID":"49175","MEAN_MOTION":"14.98321980","GP_ID":"231428000","ELEMENT_SET_NO":"999","CLASSIFICATION_TYPE":"U","PERIAPSIS":"570.343","EPOCH":"2023-05-07T22:27:13.348224","SITE":"AFWTR","TIME_SYSTEM":"UTC","EPHEMERIS_TYPE":"0","SEMIMAJOR_AXIS":"6950.218","RCS_SIZE":"LARGE","MEAN_MOTION_DOT":"0.00000496","REV_AT_EPOCH":"9117","LAUNCH_DATE":"2021-09-14","OBJECT_TYPE":"PAYLOAD","REF_FRAME":"TEME","TLE_LINE2":"2 49175  70.0014   8.4864 0002503 254.9661 105.1221 14.98321980 91178","ARG_OF_PERICENTER":"254.9661","ECCENTRICITY":"0.00025030","APOAPSIS":"573.822","INCLINATION":"70.0014","COUNTRY_CODE":"US","OBJECT_NAME":"STARLINK-3087","OBJECT_ID":"2021-082AX","PERIOD":"96.108"},{"REF_FRAME":"TEME","OBJECT_TYPE":"PAYLOAD","LAUNCH_DATE":"2021-09-14","INCLINATION":"70.0002","COUNTRY_CODE":"US","OBJECT_ID":"2021-082AY","OBJECT_NAME":"STARLINK-3069","PERIOD":"96.109","ECCENTRICITY":"0.00029450","APOAPSIS":"574.203","ARG_OF_PERICENTER":"268.3494","TLE_LINE2":"2 49176  70.0002 348.5115 0002945 268.3494  91.7327 14.98298387 91661","SEMIMAJOR_AXIS":"6950.291","EPHEMERIS_TYPE":"0","TIME_SYSTEM":"UTC","EPOCH":"2023-05-07T22:08:52.230336","SITE":"AFWTR","REV_AT_EPOCH":"9166","RCS_SIZE":"LARGE","MEAN_MOTION_DOT":"0.00004013","RA_OF_ASC_NODE":"348.5115","DECAY_DATE":null,"BSTAR":"0.00034421000000","ELEMENT_SET_NO":"999","CLASSIFICATION_TYPE":"U","PERIAPSIS":"570.109","MEAN_MOTION":"14.98298387","GP_ID":"231428250","NORAD_CAT_ID":"49176","CENTER_NAME":"EARTH","TLE_LINE1":"1 49176U 21082AY  23127.92282674  .00004013  00000-0  34421-3 0  9990","MEAN_ANOMALY":"91.7327","FILE":"3903413","MEAN_MOTION_DDOT":"0.0000000000000","MEAN_ELEMENT_THEORY":"SGP4"},{"APOAPSIS":"573.959","ECCENTRICITY":"0.00026980","PERIOD":"96.108","COUNTRY_CODE":"US","INCLINATION":"70.0011","OBJECT_ID":"2021-082AZ","OBJECT_NAME":"STARLINK-3103","TLE_LINE2":"2 49177  70.0011 348.6362 0002698 262.4631  97.6221 14.98321677 92859","ARG_OF_PERICENTER":"262.4631","OBJECT_TYPE":"PAYLOAD","REF_FRAME":"TEME","LAUNCH_DATE":"2021-09-14","REV_AT_EPOCH":"9285","RCS_SIZE":"LARGE","MEAN_MOTION_DOT":"0.00000003","EPHEMERIS_TYPE":"0","SEMIMAJOR_AXIS":"6950.219","SITE":"AFWTR","EPOCH":"2023-05-07T21:02:46.156704","TIME_SYSTEM":"UTC","GP_ID":"231406507","MEAN_MOTION":"14.98321677","PERIAPSIS":"570.208","CLASSIFICATION_TYPE":"U","ELEMENT_SET_NO":"999","NORAD_CAT_ID":"49177","RA_OF_ASC_NODE":"348.6362","DECAY_DATE":null,"BSTAR":"0.00000803060000","FILE":"3903372","MEAN_ANOMALY":"97.6221","MEAN_ELEMENT_THEORY":"SGP4","MEAN_MOTION_DDOT":"0.0000000000000","CENTER_NAME":"EARTH","TLE_LINE1":"1 49177U 21082AZ  23127.87692311  .00000003  00000-0  80306-5 0  9998"},{"ELEMENT_SET_NO":"999","CLASSIFICATION_TYPE":"U","PERIAPSIS":"570.304","MEAN_MOTION":"14.98320677","GP_ID":"231428753","NORAD_CAT_ID":"49178","RA_OF_ASC_NODE":"28.5557","DECAY_DATE":null,"BSTAR":"0.00002006500000","MEAN_ANOMALY":"112.6545","FILE":"3903413","MEAN_MOTION_DDOT":"0.0000000000000","MEAN_ELEMENT_THEORY":"SGP4","CENTER_NAME":"EARTH","TLE_LINE1":"1 49178U 21082BA  23127.90241979  .00000146  00000-0  20065-4 0  9996","COUNTRY_CODE":"US","OBJECT_NAME":"STARLINK-3086","INCLINATION":"70.0026","OBJECT_ID":"2021-082BA","PERIOD":"96.108","ECCENTRICITY":"0.00025650","APOAPSIS":"573.869","ARG_OF_PERICENTER":"247.4343","TLE_LINE2":"2 49178  70.0026  28.5557 0002565 247.4343 112.6545 14.98320677 91835","REF_FRAME":"TEME","OBJECT_TYPE":"PAYLOAD","LAUNCH_DATE":"2021-09-14","REV_AT_EPOCH":"9183","RCS_SIZE":"LARGE","MEAN_MOTION_DOT":"0.00000146","SEMIMAJOR_AXIS":"6950.222","EPHEMERIS_TYPE":"0","TIME_SYSTEM":"UTC","EPOCH":"2023-05-07T21:39:29.069856","SITE":"AFWTR"},{"LAUNCH_DATE":"2021-09-14","OBJECT_TYPE":"PAYLOAD","REF_FRAME":"TEME","TLE_LINE2":"2 49179  70.0003 348.4828 0002860 273.1678  86.9154 14.98320996 91665","ARG_OF_PERICENTER":"273.1678","ECCENTRICITY":"0.00028600","APOAPSIS":"574.073","INCLINATION":"70.0003","COUNTRY_CODE":"US","OBJECT_ID":"2021-082BB","OBJECT_NAME":"STARLINK-3043","PERIOD":"96.108","EPOCH":"2023-05-07T22:20:53.041344","SITE":"AFWTR","TIME_SYSTEM":"UTC","EPHEMERIS_TYPE":"0","SEMIMAJOR_AXIS":"6950.221","MEAN_MOTION_DOT":"-0.00000877","RCS_SIZE":"LARGE","REV_AT_EPOCH":"9166","DECAY_DATE":null,"BSTAR":"-0.00006571700000","RA_OF_ASC_NODE":"348.4828","NORAD_CAT_ID":"49179","MEAN_MOTION":"14.98320996","GP_ID":"231427501","ELEMENT_SET_NO":"999","PERIAPSIS":"570.098","CLASSIFICATION_TYPE":"U","TLE_LINE1":"1 49179U 21082BB  23127.93116946 -.00000877  00000-0 -65717-4 0  9991","CENTER_NAME":"EARTH","MEAN_ELEMENT_THEORY":"SGP4","MEAN_MOTION_DDOT":"0.0000000000000","FILE":"3903413","MEAN_ANOMALY":"86.9154"},{"TIME_SYSTEM":"UTC","SITE":"AFWTR","EPOCH":"2023-05-07T21:57:10.696896","SEMIMAJOR_AXIS":"6950.216","EPHEMERIS_TYPE":"0","RCS_SIZE":"LARGE","MEAN_MOTION_DOT":"-0.00000641","REV_AT_EPOCH":"9234","LAUNCH_DATE":"2021-09-14","REF_FRAME":"TEME","OBJECT_TYPE":"PAYLOAD","ARG_OF_PERICENTER":"271.3259","TLE_LINE2":"2 49180  69.9995   8.5335 0003464 271.3259  88.7503 14.98322519 92344","PERIOD":"96.107","INCLINATION":"69.9995","COUNTRY_CODE":"US","OBJECT_ID":"2021-082BC","OBJECT_NAME":"STARLINK-3050","APOAPSIS":"574.489","ECCENTRICITY":"0.00034640","CENTER_NAME":"EARTH","TLE_LINE1":"1 49180U 21082BC  23127.91470714 -.00000641  00000-0 -45909-4 0  9997","MEAN_MOTION_DDOT":"0.0000000000000","MEAN_ELEMENT_THEORY":"SGP4","MEAN_ANOMALY":"88.7503","FILE":"3903413","DECAY_DATE":null,"BSTAR":"-0.00004590900000","RA_OF_ASC_NODE":"8.5335","NORAD_CAT_ID":"49180","CLASSIFICATION_TYPE":"U","PERIAPSIS":"569.673","ELEMENT_SET_NO":"999","GP_ID":"231427751","MEAN_MOTION":"14.98322519"},{"EPOCH":"2023-05-07T21:15:27.471168","SITE":"AFWTR","TIME_SYSTEM":"UTC","EPHEMERIS_TYPE":"0","SEMIMAJOR_AXIS":"6950.258","MEAN_MOTION_DOT":"0.00002070","RCS_SIZE":"LARGE","REV_AT_EPOCH":"9184","LAUNCH_DATE":"2021-09-14","OBJECT_TYPE":"PAYLOAD","REF_FRAME":"TEME","TLE_LINE2":"2 49181  70.0013  28.6179 0002218 245.2928 114.8000 14.98308851 91847","ARG_OF_PERICENTER":"245.2928","APOAPSIS":"573.665","ECCENTRICITY":"0.00022180","OBJECT_ID":"2021-082BD","COUNTRY_CODE":"US","INCLINATION":"70.0013","OBJECT_NAME":"STARLINK-3059","PERIOD":"96.108","TLE_LINE1":"1 49181U 21082BD  23127.88573462  .00002070  00000-0  18134-3 0  9993","CENTER_NAME":"EARTH","MEAN_ELEMENT_THEORY":"SGP4","MEAN_MOTION_DDOT":"0.0000000000000","FILE":"3903372","MEAN_ANOMALY":"114.8000","DECAY_DATE":null,"BSTAR":"0.00018134000000","RA_OF_ASC_NODE":"28.6179","NORAD_CAT_ID":"49181","MEAN_MOTION":"14.98308851","GP_ID":"231406510","ELEMENT_SET_NO":"999","CLASSIFICATION_TYPE":"U","PERIAPSIS":"570.582"},{"CENTER_NAME":"EARTH","TLE_LINE1":"1 49408U 21104A   23127.52487578  .00004353  00000-0  29133-3 0  9990","MEAN_MOTION_DDOT":"0.0000000000000","MEAN_ELEMENT_THEORY":"SGP4","MEAN_ANOMALY":"271.8724","FILE":"3903215","DECAY_DATE":null,"BSTAR":"0.00029133000000","RA_OF_ASC_NODE":"205.1470","NORAD_CAT_ID":"49408","CLASSIFICATION_TYPE":"U","PERIAPSIS":"538.967","ELEMENT_SET_NO":"999","GP_ID":"231397694","MEAN_MOTION":"15.08853543","TIME_SYSTEM":"UTC","SITE":"AFETR","EPOCH":"2023-05-07T12:35:49.267392","SEMIMAJOR_AXIS":"6917.839","EPHEMERIS_TYPE":"0","MEAN_MOTION_DOT":"0.00004353","RCS_SIZE":"LARGE","REV_AT_EPOCH":"8205","LAUNCH_DATE":"2021-11-13","REF_FRAME":"TEME","OBJECT_TYPE":"PAYLOAD","ARG_OF_PERICENTER":"88.2390","TLE_LINE2":"2 49408  53.2139 205.1470 0001066  88.2390 271.8724 15.08853543 82050","PERIOD":"95.437","COUNTRY_CODE":"US","OBJECT_NAME":"STARLINK-3151","INCLINATION":"53.2139","OBJECT_ID":"2021-104A","APOAPSIS":"540.441","ECCENTRICITY":"0.00010660"},{"CENTER_NAME":"EARTH","TLE_LINE1":"1 49409U 21104B   23127.53961281 -.00000409  00000-0 -76280-5 0  9997","MEAN_ELEMENT_THEORY":"SGP4","MEAN_MOTION_DDOT":"0.0000000000000","FILE":"3903128","MEAN_ANOMALY":"296.8847","DECAY_DATE":null,"BSTAR":"-0.00000762800000","RA_OF_ASC_NODE":"205.0641","NORAD_CAT_ID":"49409","GP_ID":"231373444","MEAN_MOTION":"15.08832492","PERIAPSIS":"539.215","CLASSIFICATION_TYPE":"U","ELEMENT_SET_NO":"999","SITE":"AFETR","EPOCH":"2023-05-07T12:57:02.546784","TIME_SYSTEM":"UTC","EPHEMERIS_TYPE":"0","SEMIMAJOR_AXIS":"6917.903","MEAN_MOTION_DOT":"-0.00000409","RCS_SIZE":"LARGE","REV_AT_EPOCH":"8314","LAUNCH_DATE":"2021-11-13","OBJECT_TYPE":"PAYLOAD","REF_FRAME":"TEME","TLE_LINE2":"2 49409  53.2149 205.0641 0000800  63.2226 296.8847 15.08832492 83141","ARG_OF_PERICENTER":"63.2226","APOAPSIS":"540.322","ECCENTRICITY":"0.00008000","PERIOD":"95.438","COUNTRY_CODE":"US","OBJECT_ID":"2021-104B","INCLINATION":"53.2149","OBJECT_NAME":"STARLINK-3075"}];
